[{"OBJECT_NAME":"SL-8 R/B","OBJECT_ID":"1988-053B","EPOCH":"2026-03-19T07:27:31.369536","MEAN_MOTION":14.38922046,"ECCENTRICITY":0.00215446,"INCLINATION":74.045,"RA_OF_ASC_NODE":94.7303,"ARG_OF_PERICENTER":272.7718,"MEAN_ANOMALY":98.3894,"EPHEMERIS_TYPE":0,"CLASSIFICATION_TYPE":"U","NORAD_CAT_ID":19257,"ELEMENT_SET_NO":999,"REV_AT_EPOCH":97798,"BSTAR":9.8854909e-5,"MEAN_MOTION_DOT":2.79e-6,"MEAN_MOTION_DDOT":0},{"OBJECT_NAME":"COSMOS 1975","OBJECT_ID":"1988-093A","EPOCH":"2026-03-19T03:41:55.663008","MEAN_MOTION":15.28193761,"ECCENTRICITY":0.00129379,"INCLINATION":82.5163,"RA_OF_ASC_NODE":108.1817,"ARG_OF_PERICENTER":132.293,"MEAN_ANOMALY":227.9408,"EPHEMERIS_TYPE":0,"CLASSIFICATION_TYPE":"U","NORAD_CAT_ID":19573,"ELEMENT_SET_NO":999,"REV_AT_EPOCH":2085,"BSTAR":0.0002033763,"MEAN_MOTION_DOT":5.633e-5,"MEAN_MOTION_DDOT":0},{"OBJECT_NAME":"SL-14 R/B","OBJECT_ID":"1988-093B","EPOCH":"2026-03-19T07:27:14.766048","MEAN_MOTION":14.85668028,"ECCENTRICITY":0.00209748,"INCLINATION":82.5325,"RA_OF_ASC_NODE":33.0127,"ARG_OF_PERICENTER":10.7832,"MEAN_ANOMALY":141.4385,"EPHEMERIS_TYPE":0,"CLASSIFICATION_TYPE":"U","NORAD_CAT_ID":19574,"ELEMENT_SET_NO":999,"REV_AT_EPOCH":244,"BSTAR":5.7362025e-5,"MEAN_MOTION_DOT":5.23e-6,"MEAN_MOTION_DDOT":0},{"OBJECT_NAME":"SL-16 R/B","OBJECT_ID":"1988-102B","EPOCH":"2026-03-19T07:11:04.188192","MEAN_MOTION":14.16156029,"ECCENTRICITY":0.00146452,"INCLINATION":70.999,"RA_OF_ASC_NODE":131.2783,"ARG_OF_PERICENTER":346.594,"MEAN_ANOMALY":13.4792,"EPHEMERIS_TYPE":0,"CLASSIFICATION_TYPE":"U","NORAD_CAT_ID":19650,"ELEMENT_SET_NO":999,"REV_AT_EPOCH":92825,"BSTAR":-1.1174585e-5,"MEAN_MOTION_DOT":-7.0e-7,"MEAN_MOTION_DDOT":0},{"OBJECT_NAME":"INTERCOSMOS 24","OBJECT_ID":"1989-080A","EPOCH":"2026-03-19T02:18:05.840352","MEAN_MOTION":12.59571281,"ECCENTRICITY":0.11866737,"INCLINATION":82.6016,"RA_OF_ASC_NODE":98.2774,"ARG_OF_PERICENTER":270.965,"MEAN_ANOMALY":75.6003,"EPHEMERIS_TYPE":0,"CLASSIFICATION_TYPE":"U","NORAD_CAT_ID":20261,"ELEMENT_SET_NO":999,"REV_AT_EPOCH":66798,"BSTAR":0.00015880647,"MEAN_MOTION_DOT":5.34e-6,"MEAN_MOTION_DDOT":0},{"OBJECT_NAME":"SL-14 R/B","OBJECT_ID":"1989-080C","EPOCH":"2026-03-19T07:38:13.260192","MEAN_MOTION":12.5050412,"ECCENTRICITY":0.12307929,"INCLINATION":82.5966,"RA_OF_ASC_NODE":167.0076,"ARG_OF_PERICENTER":162.7502,"MEAN_ANOMALY":201.963,"EPHEMERIS_TYPE":0,"CLASSIFICATION_TYPE":"U","NORAD_CAT_ID":20262,"ELEMENT_SET_NO":999,"REV_AT_EPOCH":66135,"BSTAR":0.00012157319,"MEAN_MOTION_DOT":4.27e-6,"MEAN_MOTION_DDOT":0},{"OBJECT_NAME":"DELTA 1 R/B","OBJECT_ID":"1989-089B","EPOCH":"2026-03-19T06:39:30.440160","MEAN_MOTION":14.50671098,"ECCENTRICITY":0.0070721,"INCLINATION":97.0698,"RA_OF_ASC_NODE":284.1907,"ARG_OF_PERICENTER":92.2696,"MEAN_ANOMALY":268.6602,"EPHEMERIS_TYPE":0,"CLASSIFICATION_TYPE":"U","NORAD_CAT_ID":20323,"ELEMENT_SET_NO":999,"REV_AT_EPOCH":89712,"BSTAR":9.0517633e-5,"MEAN_MOTION_DOT":3.32e-6,"MEAN_MOTION_DDOT":0},{"OBJECT_NAME":"ARIANE 40 R/B","OBJECT_ID":"1990-005H","EPOCH":"2026-03-19T04:40:31.628928","MEAN_MOTION":14.39876517,"ECCENTRICITY":0.00104505,"INCLINATION":98.3063,"RA_OF_ASC_NODE":138.5722,"ARG_OF_PERICENTER":169.7193,"MEAN_ANOMALY":190.4211,"EPHEMERIS_TYPE":0,"CLASSIFICATION_TYPE":"U","NORAD_CAT_ID":20443,"ELEMENT_SET_NO":999,"REV_AT_EPOCH":89417,"BSTAR":8.526135e-5,"MEAN_MOTION_DOT":2.26e-6,"MEAN_MOTION_DDOT":0},{"OBJECT_NAME":"DELTA 2 R/B(1)","OBJECT_ID":"1990-008B","EPOCH":"2026-03-18T19:16:07.447872","MEAN_MOTION":15.57130229,"ECCENTRICITY":0.00820237,"INCLINATION":35.6024,"RA_OF_ASC_NODE":114.9908,"ARG_OF_PERICENTER":343.0931,"MEAN_ANOMALY":16.7077,"EPHEMERIS_TYPE":0,"CLASSIFICATION_TYPE":"U","NORAD_CAT_ID":20453,"ELEMENT_SET_NO":999,"REV_AT_EPOCH":92755,"BSTAR":0.00054577361,"MEAN_MOTION_DOT":0.00048118,"MEAN_MOTION_DDOT":0},{"OBJECT_NAME":"COSMOS 2058","OBJECT_ID":"1990-010A","EPOCH":"2026-03-19T07:32:42.336096","MEAN_MOTION":15.11402491,"ECCENTRICITY":0.00080549,"INCLINATION":82.4674,"RA_OF_ASC_NODE":37.9431,"ARG_OF_PERICENTER":310.4368,"MEAN_ANOMALY":49.6159,"EPHEMERIS_TYPE":0,"CLASSIFICATION_TYPE":"U","NORAD_CAT_ID":20465,"ELEMENT_SET_NO":999,"REV_AT_EPOCH":94369,"BSTAR":0.00019411363,"MEAN_MOTION_DOT":3.307e-5,"MEAN_MOTION_DDOT":0},{"OBJECT_NAME":"SL-14 R/B","OBJECT_ID":"1990-010B","EPOCH":"2026-03-18T22:14:57.660000","MEAN_MOTION":14.8357705,"ECCENTRICITY":0.00183195,"INCLINATION":82.4987,"RA_OF_ASC_NODE":258.709,"ARG_OF_PERICENTER":269.4952,"MEAN_ANOMALY":90.4163,"EPHEMERIS_TYPE":0,"CLASSIFICATION_TYPE":"U","NORAD_CAT_ID":20466,"ELEMENT_SET_NO":999,"REV_AT_EPOCH":92985,"BSTAR":4.6569551e-5,"MEAN_MOTION_DOT":4.08e-6,"MEAN_MOTION_DDOT":0},{"OBJECT_NAME":"SL-14 R/B","OBJECT_ID":"1990-018B","EPOCH":"2026-03-19T02:07:51.395520","MEAN_MOTION":14.82154673,"ECCENTRICITY":0.00174854,"INCLINATION":82.522,"RA_OF_ASC_NODE":214.3051,"ARG_OF_PERICENTER":63.5565,"MEAN_ANOMALY":296.7441,"EPHEMERIS_TYPE":0,"CLASSIFICATION_TYPE":"U","NORAD_CAT_ID":20511,"ELEMENT_SET_NO":999,"REV_AT_EPOCH":92397,"BSTAR":5.0876578e-5,"MEAN_MOTION_DOT":4.3e-6,"MEAN_MOTION_DDOT":0},{"OBJECT_NAME":"HST","OBJECT_ID":"1990-037B","EPOCH":"2026-03-19T00:17:19.342752","MEAN_MOTION":15.29626908,"ECCENTRICITY":0.0001574,"INCLINATION":28.4725,"RA_OF_ASC_NODE":336.3997,"ARG_OF_PERICENTER":225.3944,"MEAN_ANOMALY":134.6524,"EPHEMERIS_TYPE":0,"CLASSIFICATION_TYPE":"U","NORAD_CAT_ID":20580,"ELEMENT_SET_NO":999,"REV_AT_EPOCH":77474,"BSTAR":0.00021508903,"MEAN_MOTION_DOT":6.585e-5,"MEAN_MOTION_DDOT":0},{"OBJECT_NAME":"SL-16 R/B","OBJECT_ID":"1990-046B","EPOCH":"2026-03-19T05:46:27.408000","MEAN_MOTION":14.15011944,"ECCENTRICITY":0.00162036,"INCLINATION":70.9954,"RA_OF_ASC_NODE":277.8541,"ARG_OF_PERICENTER":286.9545,"MEAN_ANOMALY":72.9801,"EPHEMERIS_TYPE":0,"CLASSIFICATION_TYPE":"U","NORAD_CAT_ID":20625,"ELEMENT_SET_NO":999,"REV_AT_EPOCH":84974,"BSTAR":5.4573371e-5,"MEAN_MOTION_DOT":5.8e-7,"MEAN_MOTION_DDOT":0},{"OBJECT_NAME":"COSMOS 2084","OBJECT_ID":"1990-055A","EPOCH":"2026-03-18T22:52:53.646816","MEAN_MOTION":15.05700267,"ECCENTRICITY":0.0015623,"INCLINATION":62.7902,"RA_OF_ASC_NODE":303.9824,"ARG_OF_PERICENTER":192.5621,"MEAN_ANOMALY":167.5092,"EPHEMERIS_TYPE":0,"CLASSIFICATION_TYPE":"U","NORAD_CAT_ID":20663,"ELEMENT_SET_NO":999,"REV_AT_EPOCH":93771,"BSTAR":0.00014092815,"MEAN_MOTION_DOT":1.849e-5,"MEAN_MOTION_DDOT":0},{"OBJECT_NAME":"SL-6 R/B(2)","OBJECT_ID":"1990-055D","EPOCH":"2026-03-18T16:23:06.766944","MEAN_MOTION":15.03638482,"ECCENTRICITY":0.00262582,"INCLINATION":62.7825,"RA_OF_ASC_NODE":223.2661,"ARG_OF_PERICENTER":349.1881,"MEAN_ANOMALY":10.8651,"EPHEMERIS_TYPE":0,"CLASSIFICATION_TYPE":"U","NORAD_CAT_ID":20666,"ELEMENT_SET_NO":999,"REV_AT_EPOCH":93954,"BSTAR":0.0001516617,"MEAN_MOTION_DOT":1.898e-5,"MEAN_MOTION_DDOT":0},{"OBJECT_NAME":"SL-8 R/B","OBJECT_ID":"1990-078B","EPOCH":"2026-03-18T23:34:06.233376","MEAN_MOTION":14.89351773,"ECCENTRICITY":0.03602896,"INCLINATION":82.9001,"RA_OF_ASC_NODE":242.9501,"ARG_OF_PERICENTER":342.7169,"MEAN_ANOMALY":16.2031,"EPHEMERIS_TYPE":0,"CLASSIFICATION_TYPE":"U","NORAD_CAT_ID":20775,"ELEMENT_SET_NO":999,"REV_AT_EPOCH":81068,"BSTAR":0.00027879614,"MEAN_MOTION_DOT":9.451e-5,"MEAN_MOTION_DDOT":0}]
